{
  "norad_id": 63524,
  "name": "TJS-17",
  "history": [
    {
      "epoch": "2026-03-28T18:04:51.497184Z",
      "apogee_km": 35804.414513738266,
      "perigee_km": 35769.35851318917,
      "latitude_deg": 0.04371110859725589,
      "longitude_deg": 164.47692746074384,
      "height_km": 35783.66487375298,
      "semi_major_axis_km": 42165.02351346372,
      "eccentricity": 0.0004157,
      "inclination_deg": 0.8567,
      "raan_deg": 83.2488,
      "arg_perigee_deg": 259.6392,
      "mean_anomaly_deg": 278.997,
      "mean_motion_rev_day": 1.00270745
    }
  ]
}