TJS-17                  
1 63524U 25073A   26087.75337381 -.00000089  00000+0  00000+0 0  9993
2 63524   0.8567  83.2488 0004157 259.6392 278.9970  1.00270745  3487
